HST                     
1 20580U 90037B   26161.23228163  .00005211  00000+0  16320-3 0  9990
2 20580  28.4709 128.1050 0001977  72.5591 287.5221 15.30670250787500
POLAR                   
1 23802U 96013A   26161.10497356  .00000119  00000+0  00000+0 0  9994
2 23802  79.8450 227.1351 6463548 209.3248  89.4153  1.29846146144768
SWAS                    
1 25560U 98071A   26161.58836362  .00003318  00000+0  21239-3 0  9994
2 25560  69.8964 244.5355 0008915 265.9597  94.0548 15.09586430496275
CXO                     
1 25867U 99040B   26164.08641897  .00000611  00000+0  00000+0 0  9998
2 25867  56.1211 116.7320 7849026 310.2825   0.0985  0.37806491 17304
XMM-NEWTON              
1 25989U 99066A   26161.36780906  .00000089  00000+0  00000+0 0  9993
2 25989  64.5271 283.0748 4677764  65.0342   0.0416  0.50122831 22976
TERRA                   
1 25994U 99068A   26161.65839779  .00000315  00000+0  73135-4 0  9992
2 25994  97.9458 211.4633 0001092 217.9293 254.4366 14.61097849408650
CLUSTER II-FM7 (SAMBA)  
1 26410U 00041A   26161.44626665  .00004459  00000+0  00000+0 0  9993
2 26410 149.9132  49.6129 9048191 266.6863 359.9829  0.44840364 20284
CLUSTER II-FM8 (TANGO)  
1 26464U 00045B   26159.43372399  .00004392  00000+0  00000+0 0  9990
2 26464 150.1501  50.3668 9050747 267.2621   3.1770  0.44412171 20276
ODIN                    
1 26702U 01007A   26161.61278621  .00143252  00000+0  10093-2 0  9995
2 26702  97.3853 202.1427 0006554 151.3239 208.8386 15.73638419388366
TIMED                   
1 26998U 01055B   26161.58527636  .00001120  00000+0  10526-3 0  9993
2 26998  74.0677 248.3110 0000744 347.4684  12.6482 14.95280595329833
CORIOLIS                
1 27640U 03001A   26161.57346241  .00000087  00000+0  61618-4 0  9991
2 27640  98.7126 168.5592 0013059 228.9294 131.0755 14.19943013213287
SORCE                   
1 27651U 03004A   26161.49808484  .00002500  00000+0  18967-3 0  9999
2 27651  39.9915 299.8412 0017440 359.6790   0.3990 15.03677240270891
MOST                    
1 27843U 03031D   26161.59398888  .00000061  00000+0  48257-4 0  9991
2 27843  98.7045 169.4120 0008673 271.9646  88.0538 14.21321149189773
SCISAT 1                
1 27858U 03036A   26161.47265780  .00000452  00000+0  62425-4 0  9990
2 27858  73.9285 184.6839 0008673 253.8930 106.1292 14.81441038230458
SWIFT                   
1 28485U 04047A   26160.80720722  .00060185  00000+0  51552-3 0  9995
2 28485  20.5518 241.7982 0002239 174.3628 185.6843 15.67639100185704
HINODE (SOLAR-B)        
1 29479U 06041A   26161.57656694  .00000630  00000+0  11675-3 0  9997
2 29479  98.0549 177.8265 0016277 312.4716  47.5113 14.68613960 53903
SHIJIAN-6 02A (SJ-6 02A)
1 29505U 06046A   26161.56100234  .00008398  00000+0  42986-3 0  9993
2 29505  97.6370 202.5781 0004071 138.9087 221.2453 15.16869105 71265
SHIJIAN-6 02B (SJ-6 02B)
1 29506U 06046B   26161.61494955  .00001529  00000+0  12314-3 0  9997
2 29506  97.7165 190.7144 0014923  79.2420 281.0484 15.01361321 69755
FGRST (GLAST)           
1 33053U 08029A   26161.54974197  .00003035  00000+0  10847-3 0  9998
2 33053  25.5819 250.5696 0007656 246.4283 113.5451 15.23916606994823
SDO                     
1 36395U 10005A   26160.45717389 -.00000063  00000+0  00000+0 0  9999
2 36395  34.6348  86.4608 0001571  53.7612 180.1782  1.00270666 59982
CRYOSAT 2               
1 36508U 10013A   26161.60300535  .00000111  00000+0  26935-4 0  9996
2 36508  92.0349 275.7014 0002207  86.9881 273.1579 14.51897031857124
X-SAT                   
1 37389U 11015C   26161.62622142  .00000199  00000+0  10192-3 0  9993
2 37389  98.3507 138.9622 0014394   7.5666 352.5729 14.25204587786749
GCOM-W1 (SHIZUKU)       
1 38337U 12025A   26161.60043670  .00000397  00000+0  98173-4 0  9996
2 38337  98.2020 102.2559 0001852  79.8279  99.5239 14.57118481748072
NUSTAR                  
1 38358U 12031A   26161.66670139 -.00000946  00000+0 -11106-3 0  9990
2 38358   6.0264  83.0434 0007951   1.3969 213.6238 15.08740828  1301
NEOSSAT                 
1 39089U 13009D   26161.24085862  .00000130  00000+0  59656-4 0  9991
2 39089  98.4176 341.4389 0009780 267.0777  92.9290 14.35823958695748
BRITE-AUSTRIA           
1 39091U 13009F   26161.31259207  .00000151  00000+0  66105-4 0  9998
2 39091  98.3993 340.9187 0008976 259.7198 100.2977 14.36539349696068
IRIS                    
1 39197U 13033A   26161.56544049  .00000897  00000+0  10884-3 0  9999
2 39197  97.9335   0.8632 0024044 344.1055  15.9402 14.85872005699399
HISAKI (SPRINT-A)       
1 39253U 13049A   26161.57380247  .00000125  00000+0  81000-4 0  9991
2 39253  29.7199 253.6367 0136897 323.2523  35.8729 13.55543987630527
CASSIOPE                
1 39265U 13055A   26161.53461287  .00041526 -58148-6  45670-3 0  9997
2 39265  80.9145  74.7951 0295025  84.7435 278.7385 15.24573915666652
STSAT-3                 
1 39422U 13066G   26161.58727603  .00003056  00000+0  23304-3 0  9998
2 39422  97.6212 131.5815 0011053  62.0698 298.1645 15.02717313683219
SWARM B                 
1 39451U 13067A   26161.58706264  .00003095  00000+0  11034-3 0  9991
2 39451  87.7438 344.3229 0003384  89.1952 270.9685 15.28511298682230
